#dP2024  3  3  0  0  0.00000000      97 __u+U IGS20 FIT  IAC
## 2304      0.00000000   900.00000000 60372 0.0000000000000
+  119   C06C07C08C09C10C11C12C13C14C16C19C20C21C22C23C24C25
+        C26C27C28C29C30C32C33C34C35C36C37C38C39C40C41C42C43
+        C44C45C46E02E03E04E05E07E08E09E10E11E12E13E14E15E18
+        E19E21E24E25E26E27E30E31E33E34E36G01G02G03G04G05G06
+        G07G08G09G10G11G12G13G14G15G16G17G18G19G20G21G22G23
+        G24G25G26G27G28G29G30G31G32J02J03J04R01R02R03R04R05
+        R07R08R09R11R12R13R14R15R16R17R18R19R20R21R22R24R26
++         7  7  7  7  7  6  6  7  6  7  6  5  5  6  6  5  6
++         5  6  6  6  5  5  6  5  6  6  6  6  6  6  6  5  6
++         5  5  6  4  4  4  4  4  4  4  4  5  4  4  5  4  4
++         4  4  4  4  4  4  4  4  4  4  4  4  4  3  3  3  3
++         3  3  3  3  3  3  4  3  3  3  3  4  3  3  4  3  3
++         4  3  3  3  3  3  3  3  3 11 12 11  8  6  7  7  6
++         7  7  7  7  6  7  6  6  6  6  7  8  8  6  6  6  8
%c M  cc GPS ccc cccc cccc cccc cccc ccccc ccccc ccccc ccccc
%c cc cc ccc ccc cccc cccc cccc cccc ccccc ccccc ccccc ccccc
%f  1.2500000  1.025000000  0.00000000000  0.000000000000000
%f  0.0000000  0.000000000  0.00000000000  0.000000000000000
%i    0    0    0    0      0      0      0      0         0
%i    0    0    0    0      0      0      0      0         0
/* INFORMATION & ANALYSIS CENTER (IAC)            FINAL DATA
/* S/V CLOCKS ARE ALIGNED TO GNSS TIME                      
/* G:C1WC2W R:C1PC2P E:C1XC5X C:C2IC6I J:C1CC2S             
/* PCV:IGS20_2290 OL/AL:FES2004  NONE     YN ORB:CoN CLK:CoN
*  2024 03 03  6 45  0.00000000
PC06  -6600.611378  39914.757213 -11295.532064    247.437726
PC07  -7848.812332  26562.803265  31874.469746   -894.564282
PC08 -20890.990086  29257.465013 -22198.057531     -6.668474
PC09  -2191.503109  41643.769919  -2676.347424   -568.684073
PC10   1134.703934  28864.884395  31144.114126     61.191321
PC11 -13835.669908   7108.684597  23236.404329    440.324722
PC12 -17321.892680 -13627.259335  17158.718991   -205.036274
PC13 -12528.608079  29568.168706 -27298.392596    422.054206
PC14 -24396.010622   5122.739221 -12464.528688    319.548848
PC16  -8289.799269  38515.587415 -14247.918792   -373.819714
PC19  17298.548778 -10632.240812  19185.224217   -921.996080
PC20  27381.679900    157.269267   5491.547306   -219.188780
PC21 -21684.037961 -11924.841419  12891.054832   -961.473524
PC22  -3296.963261 -15955.512659  22655.381760    -88.684169
PC23  -6231.542671  23679.354501  13388.376286   -777.903866
PC24 -20603.587063   5045.444620 -18165.968469    937.189861
PC25 -18233.947300  20933.029987  -2965.897723    340.185767
PC26 -10900.868748 -12467.767168 -22478.284544   -257.376950
PC27  15688.129209  20797.024743 -10005.963812    279.319819
PC28   6129.699489  26608.729900   5752.932114    212.804060
PC29   8588.808081 -16626.697463 -20708.772499    249.490759
PC30  17830.490835   3629.432555 -21159.150117    -32.721030
PC32  21765.843978  11763.103145 -12904.280179   -576.649455
PC33 -17291.279615  10707.243941 -19090.359156   -953.806627
PC34 -17510.192883  -1954.541201  21632.953828    381.854092
PC35  -7008.381647 -26390.244295  -5881.557687    420.156261
PC36  18880.492474 -20266.779289   3366.688058      5.263675
PC37  10247.961299  13110.228134  22407.593577   -940.885516
PC38 -25609.174691  30303.457715 -14403.526767    140.381031
PC39 -10311.710991  35218.244942 -20500.895067     -7.397694
PC40 -11973.194105  20188.722349  35010.867185    -59.059338
PC41   2446.843925  15918.171291 -22732.393244   -899.347402
PC42 -27592.798067  -1215.391618  -3824.232019   -449.657090
PC43  -9338.280631  15814.576890  20991.749421     62.663573
PC44 -16463.987056 -20328.150931   9754.115768    401.844190
PC45   6188.232283 -23570.192781 -13585.339330    -73.543004
PC46  20731.801658  -5902.359017  17689.584878   -128.528941
PE02 -23319.658132  -5125.958255 -17520.241576    108.101162
PE03 -24308.048452 -15663.419850  -6295.410813    -97.677471
PE04  20664.176590  -1441.096897  21155.307493   -340.749512
PE05 -13694.430164 -23342.056221  11997.517273   4725.486806
PE07  -5369.673986  17179.930310 -23491.000848   -106.831621
PE08 -20968.830436    677.969411 -20873.427381   -232.915791
PE09   5408.737716 -16993.969780  23627.786218   -356.772995
PE10  14377.457062 -20703.318285 -15525.117514   -606.373074
PE11   9652.722204 -27329.136497  -6073.628835   3205.967932
PE12  16619.309717 -11696.593831 -21531.048069   -931.558305
PE13  -9963.373067  27039.172098   6738.257480    -20.386532
PE14  -5012.688625  17444.978303  19009.212857     55.702633
PE15 -16595.435896  11088.668269  21861.296371    -89.055558
PE18  16296.340226 -11285.336209 -23020.052075    392.193577
PE19  23685.579554  17232.097672   4270.556362   -504.995622
PE21   5575.884237  15867.822518  24348.912512   -581.973710
PE24  16512.561397 -17758.862296 -16979.944655   -630.085034
PE25  -5145.467183 -16016.059426 -24358.504679      1.628966
PE26   2864.998558  26645.469943 -12554.009411    385.444156
PE27 -16168.802496  17837.665783  17223.298420   -289.151383
PE30 -28196.613886   9035.902061   -188.504822    -55.919973
PE31  28107.192107  -9270.150457    -38.091881    -17.344588
PE33  13178.269727  11688.159889 -23782.633505      8.458986
PE34 -13425.907823 -11081.012672  23938.540865    -97.843794
PE36  -2379.827968 -26932.396408  12072.935098   -193.939650
PG01 -11581.424598  20945.027494  10809.333600    172.072080
PG02 -14102.674477  13429.879901  18432.200593   -476.402600
PG03 -22647.020004  12343.448923  -6216.513525    229.074774
PG04 -14459.387050   6727.002725 -21242.870314    305.747249
PG05  25185.668434  -5001.072698  -7143.520029   -163.970869
PG06   6908.430184  19770.740683 -16198.416338    383.926154
PG07  -4982.125695  25811.463788   -239.510813    -75.477886
PG08 -20341.177789   -687.288119  17185.502024     26.794023
PG09  -1609.404738  17108.315119 -20318.188596    111.554328
PG10  -6800.855422 -13292.695745  22188.054685      0.898232
PG11  13202.552841   8465.799046 -21417.167231   -594.694744
PG12  23656.608872 -10701.872464  -5713.241981   -483.553962
PG13  20857.661036  10912.291780  12315.577085    630.756169
PG14   2377.194750  15492.532308  21453.604724    340.723147
PG15  20395.685680  -1686.314682  16545.615757    133.673928
PG16 -24189.240168  -2106.974060 -11622.031121   -349.858839
PG17   9543.949401  21398.519560  12780.749534    715.056496
PG18   5042.285656 -25970.659442    383.918060   -567.807891
PG19  16523.617120  20755.155177   3309.595329    448.667351
PG20  19688.620776   3091.688989 -17417.171057    385.349658
PG21 -15223.482123   7133.204986  20791.646667    132.815022
PG22  10210.380308  12747.274096  21319.397432     21.965303
PG23   6975.314479 -16707.884655  19389.022549    168.631862
PG24  14637.537209 -11561.859338  18342.285196   -440.734733
PG25  15533.167546 -16466.332341 -14011.289452    490.262289
PG26 -16835.263442  -8107.853468 -19151.216101    183.923116
PG27 -22573.701368 -11883.254671   7872.757233     -8.837635
PG28  -6488.153291 -21725.576093 -13854.995634   -150.844263
PG29   4634.950156 -15598.740674 -21021.562034   -605.729708
PG30   2546.230818  24556.497428   9560.055777   -424.946773
PG31 -11728.946505 -13113.745621 -19989.513774   -227.914690
PG32 -13703.348942 -20638.648878  10057.990716   -614.362817
PJ02 -31593.165678  24913.801574  17738.583005     -2.526021
PJ03 -27733.504179  26108.112244  23191.605076     -0.221232
PJ04 -28371.510040  20861.379893 -18145.102343     50.780585
PR01  19808.489197  -1929.838072  15970.724361     78.676522
PR02   4043.405525 -10030.042472  23151.690609    -22.542308
PR03 -13990.562544 -13068.314160  16941.655761     95.645335
PR04 -23807.425098  -9029.201568   1688.867861    225.918859
PR05 -20979.280142   -179.754128 -14508.815245    127.819117
PR07  14718.109290  12976.434982 -16222.854438     77.092640
PR08  23933.863105   8668.853720  -1275.223963    -74.627863
PR09 -13126.046038  19325.508889  10159.811606    173.198345
PR11  13674.116194   1363.837802  21499.182077     32.491490
PR12  20353.280643 -13349.990934   7620.689380     37.372068
PR13  15042.897465 -19006.015770  -7959.038957    -44.928077
PR14   -713.783117 -13548.818278 -21598.835706     26.155244
PR15 -14698.115671   -298.853967 -20831.820485     81.696365
PR16 -20243.177770  13333.379797  -7888.519432     23.712366
PR17  -7071.205149 -23973.727884   5018.816418     65.836903
PR18 -11099.382085 -13136.281038  18878.847577    130.241329
PR19 -10112.045223   2491.666823  23285.406702   -267.963675
PR20  -2646.904613  21635.437349  13218.450101   -109.178410
PR21   6932.164605  24001.521552  -5198.391304    -81.529269
PR22  11170.134942  12298.193774 -19322.141235    110.909841
PR24   1693.522944 -22121.759351 -12563.503227    -46.251658
PR26  23768.277383   8980.572279  -2364.177275   -195.539574
EOF
